IDEFIX & ARIANE 42P R/B 
1 27422U 02021B   26054.30205368  .00000288  00000+0  12585-3 0  9997
2 27422  98.5857 353.0817 0010824 226.7615 133.2665 14.31014844241960
AQUA                    
1 27424U 02022A   26054.52629126  .00001106  00000+0  23078-3 0  9995
2 27424  98.4148  21.6363 0000953  47.9744  61.5724 14.61938421266668
CZ-4B R/B               
1 27432U 02024C   26054.42100903  .00000023  00000+0  34652-4 0  9990
2 27432  98.8874 107.8975 0051039  64.2215 306.9794 14.14544816227220
MIDORI II (ADEOS-II)    
1 27597U 02056A   26054.31265891  .00000261  00000+0  12049-3 0  9992
2 27597  98.7743  12.6935 0002023  63.5167 296.6222 14.29272976208245
H-2A R/B                
1 27601U 02056E   26054.34250131  .00000283  00000+0  11368-3 0  9999
2 27601  98.3175  15.2567 0069613 203.5003 276.0825 14.33750012212051
CZ-4B R/B               
1 28059U 03049C   26054.42359171  .00000427  00000+0  10971-3 0  9992
2 28059  98.6866  48.7705 0047008 275.5040  84.0795 14.55004041184529
CZ-2C R/B               
1 28222U 04012C   26054.14539308  .00058109  00000+0  64325-3 0  9998
2 28222  97.7262 118.0783 0014233   7.7276 352.4198 15.62699928202004
SL-16 R/B               
1 28353U 04021B   26054.31451935  .00000166  00000+0  11128-3 0  9994
2 28353  70.9989 262.6622 0003346  42.5055 317.6326 14.14598623120800
CZ-4B R/B               
1 28415U 04035C   26054.05255159  .00009943  00000+0  35250-3 0  9993
2 28415  97.3525  88.4720 0032816  23.8784 336.3970 15.28768070177677
CZ-2C R/B               
1 28480U 04046B   26054.32151776  .00000127  00000+0  62639-4 0  9994
2 28480  98.1989 330.1987 0138995 196.9067 162.7459 14.26986799106453
ARIANE 5 R/B            
1 28499U 04049H   26054.41782698  .00000825  00000+0  97239-4 0  9999
2 28499  98.2603 222.3432 0084930  38.0507 322.6664 14.85235946143674
CZ-2D R/B               
1 28738U 05024B   26054.46396134  .00047129  00000+0  60912-3 0  9995
2 28738  97.3617  69.1037 0007475  80.8290 279.3811 15.58780890137563
