CCSDS_OMM_VERS = 2.0
CREATION_DATE  = 
ORIGINATOR     = 

OBJECT_NAME    = IDEFIX & ARIANE 42P R/B
OBJECT_ID      = 2002-021B
CENTER_NAME    = EARTH
REF_FRAME      = TEME
TIME_SYSTEM    = UTC
MEAN_ELEMENT_THEORY = SGP/SGP4

EPOCH          = 2026-02-23T07:14:57.437952
MEAN_MOTION    = 14.31014844
ECCENTRICITY   = .0010824
INCLINATION    = 98.5857
RA_OF_ASC_NODE = 353.0817
ARG_OF_PERICENTER = 226.7615
MEAN_ANOMALY   = 133.2665

EPHEMERIS_TYPE = 0
CLASSIFICATION_TYPE = U
NORAD_CAT_ID   = 27422
ELEMENT_SET_NO = 999
REV_AT_EPOCH   = 24196
BSTAR          = .12585E-3
MEAN_MOTION_DOT = .288E-5
MEAN_MOTION_DDOT = 0

CCSDS_OMM_VERS = 2.0
CREATION_DATE  = 
ORIGINATOR     = 

OBJECT_NAME    = AQUA
OBJECT_ID      = 2002-022A
CENTER_NAME    = EARTH
REF_FRAME      = TEME
TIME_SYSTEM    = UTC
MEAN_ELEMENT_THEORY = SGP/SGP4

EPOCH          = 2026-02-23T12:37:51.564864
MEAN_MOTION    = 14.61938421
ECCENTRICITY   = .0000953
INCLINATION    = 98.4148
RA_OF_ASC_NODE = 21.6363
ARG_OF_PERICENTER = 47.9744
MEAN_ANOMALY   = 61.5724

EPHEMERIS_TYPE = 0
CLASSIFICATION_TYPE = U
NORAD_CAT_ID   = 27424
ELEMENT_SET_NO = 999
REV_AT_EPOCH   = 26666
BSTAR          = .23078E-3
MEAN_MOTION_DOT = .1106E-4
MEAN_MOTION_DDOT = 0

CCSDS_OMM_VERS = 2.0
CREATION_DATE  = 
ORIGINATOR     = 

OBJECT_NAME    = CZ-4B R/B
OBJECT_ID      = 2002-024C
CENTER_NAME    = EARTH
REF_FRAME      = TEME
TIME_SYSTEM    = UTC
MEAN_ELEMENT_THEORY = SGP/SGP4

EPOCH          = 2026-02-23T10:06:15.180192
MEAN_MOTION    = 14.14544816
ECCENTRICITY   = .0051039
INCLINATION    = 98.8874
RA_OF_ASC_NODE = 107.8975
ARG_OF_PERICENTER = 64.2215
MEAN_ANOMALY   = 306.9794

EPHEMERIS_TYPE = 0
CLASSIFICATION_TYPE = U
NORAD_CAT_ID   = 27432
ELEMENT_SET_NO = 999
REV_AT_EPOCH   = 22722
BSTAR          = .34652E-4
MEAN_MOTION_DOT = .23E-6
MEAN_MOTION_DDOT = 0

CCSDS_OMM_VERS = 2.0
CREATION_DATE  = 
ORIGINATOR     = 

OBJECT_NAME    = MIDORI II (ADEOS-II)
OBJECT_ID      = 2002-056A
CENTER_NAME    = EARTH
REF_FRAME      = TEME
TIME_SYSTEM    = UTC
MEAN_ELEMENT_THEORY = SGP/SGP4

EPOCH          = 2026-02-23T07:30:13.729824
MEAN_MOTION    = 14.29272976
ECCENTRICITY   = .0002023
INCLINATION    = 98.7743
RA_OF_ASC_NODE = 12.6935
ARG_OF_PERICENTER = 63.5167
MEAN_ANOMALY   = 296.6222

EPHEMERIS_TYPE = 0
CLASSIFICATION_TYPE = U
NORAD_CAT_ID   = 27597
ELEMENT_SET_NO = 999
REV_AT_EPOCH   = 20824
BSTAR          = .12049E-3
MEAN_MOTION_DOT = .261E-5
MEAN_MOTION_DDOT = 0

CCSDS_OMM_VERS = 2.0
CREATION_DATE  = 
ORIGINATOR     = 

OBJECT_NAME    = H-2A R/B
OBJECT_ID      = 2002-056E
CENTER_NAME    = EARTH
REF_FRAME      = TEME
TIME_SYSTEM    = UTC
MEAN_ELEMENT_THEORY = SGP/SGP4

EPOCH          = 2026-02-23T08:13:12.113184
MEAN_MOTION    = 14.33750012
ECCENTRICITY   = .0069613
INCLINATION    = 98.3175
RA_OF_ASC_NODE = 15.2567
ARG_OF_PERICENTER = 203.5003
MEAN_ANOMALY   = 276.0825

EPHEMERIS_TYPE = 0
CLASSIFICATION_TYPE = U
NORAD_CAT_ID   = 27601
ELEMENT_SET_NO = 999
REV_AT_EPOCH   = 21205
BSTAR          = .11368E-3
MEAN_MOTION_DOT = .283E-5
MEAN_MOTION_DDOT = 0

CCSDS_OMM_VERS = 2.0
CREATION_DATE  = 
ORIGINATOR     = 

OBJECT_NAME    = CZ-4B R/B
OBJECT_ID      = 2003-049C
CENTER_NAME    = EARTH
REF_FRAME      = TEME
TIME_SYSTEM    = UTC
MEAN_ELEMENT_THEORY = SGP/SGP4

EPOCH          = 2026-02-23T10:09:58.323744
MEAN_MOTION    = 14.55004041
ECCENTRICITY   = .0047008
INCLINATION    = 98.6866
RA_OF_ASC_NODE = 48.7705
ARG_OF_PERICENTER = 275.5040
MEAN_ANOMALY   = 84.0795

EPHEMERIS_TYPE = 0
CLASSIFICATION_TYPE = U
NORAD_CAT_ID   = 28059
ELEMENT_SET_NO = 999
REV_AT_EPOCH   = 18452
BSTAR          = .10971E-3
MEAN_MOTION_DOT = .427E-5
MEAN_MOTION_DDOT = 0

CCSDS_OMM_VERS = 2.0
CREATION_DATE  = 
ORIGINATOR     = 

OBJECT_NAME    = CZ-2C R/B
OBJECT_ID      = 2004-012C
CENTER_NAME    = EARTH
REF_FRAME      = TEME
TIME_SYSTEM    = UTC
MEAN_ELEMENT_THEORY = SGP/SGP4

EPOCH          = 2026-02-23T03:29:21.962112
MEAN_MOTION    = 15.62699928
ECCENTRICITY   = .00142333
INCLINATION    = 97.7262
RA_OF_ASC_NODE = 118.0783
ARG_OF_PERICENTER = 7.7276
MEAN_ANOMALY   = 352.4198

EPHEMERIS_TYPE = 0
CLASSIFICATION_TYPE = U
NORAD_CAT_ID   = 28222
ELEMENT_SET_NO = 999
REV_AT_EPOCH   = 20200
BSTAR          = .64325257E-3
MEAN_MOTION_DOT = .58109E-3
MEAN_MOTION_DDOT = 0

CCSDS_OMM_VERS = 2.0
CREATION_DATE  = 
ORIGINATOR     = 

OBJECT_NAME    = SL-16 R/B
OBJECT_ID      = 2004-021B
CENTER_NAME    = EARTH
REF_FRAME      = TEME
TIME_SYSTEM    = UTC
MEAN_ELEMENT_THEORY = SGP/SGP4

EPOCH          = 2026-02-23T07:32:54.471840
MEAN_MOTION    = 14.14598623
ECCENTRICITY   = .0003346
INCLINATION    = 70.9989
RA_OF_ASC_NODE = 262.6622
ARG_OF_PERICENTER = 42.5055
MEAN_ANOMALY   = 317.6326

EPHEMERIS_TYPE = 0
CLASSIFICATION_TYPE = U
NORAD_CAT_ID   = 28353
ELEMENT_SET_NO = 999
REV_AT_EPOCH   = 12080
BSTAR          = .11128E-3
MEAN_MOTION_DOT = .166E-5
MEAN_MOTION_DDOT = 0

CCSDS_OMM_VERS = 2.0
CREATION_DATE  = 
ORIGINATOR     = 

OBJECT_NAME    = CZ-4B R/B
OBJECT_ID      = 2004-035C
CENTER_NAME    = EARTH
REF_FRAME      = TEME
TIME_SYSTEM    = UTC
MEAN_ELEMENT_THEORY = SGP/SGP4

EPOCH          = 2026-02-23T01:15:40.457376
MEAN_MOTION    = 15.28768070
ECCENTRICITY   = .00328169
INCLINATION    = 97.3525
RA_OF_ASC_NODE = 88.4720
ARG_OF_PERICENTER = 23.8784
MEAN_ANOMALY   = 336.3970

EPHEMERIS_TYPE = 0
CLASSIFICATION_TYPE = U
NORAD_CAT_ID   = 28415
ELEMENT_SET_NO = 999
REV_AT_EPOCH   = 17767
BSTAR          = .35249541E-3
MEAN_MOTION_DOT = .9943E-4
MEAN_MOTION_DDOT = 0

CCSDS_OMM_VERS = 2.0
CREATION_DATE  = 
ORIGINATOR     = 

OBJECT_NAME    = CZ-2C R/B
OBJECT_ID      = 2004-046B
CENTER_NAME    = EARTH
REF_FRAME      = TEME
TIME_SYSTEM    = UTC
MEAN_ELEMENT_THEORY = SGP/SGP4

EPOCH          = 2026-02-23T07:42:59.134464
MEAN_MOTION    = 14.26986799
ECCENTRICITY   = .0138995
INCLINATION    = 98.1989
RA_OF_ASC_NODE = 330.1987
ARG_OF_PERICENTER = 196.9067
MEAN_ANOMALY   = 162.7459

EPHEMERIS_TYPE = 0
CLASSIFICATION_TYPE = U
NORAD_CAT_ID   = 28480
ELEMENT_SET_NO = 999
REV_AT_EPOCH   = 10645
BSTAR          = .62639E-4
MEAN_MOTION_DOT = .127E-5
MEAN_MOTION_DDOT = 0

CCSDS_OMM_VERS = 2.0
CREATION_DATE  = 
ORIGINATOR     = 

OBJECT_NAME    = ARIANE 5 R/B
OBJECT_ID      = 2004-049H
CENTER_NAME    = EARTH
REF_FRAME      = TEME
TIME_SYSTEM    = UTC
MEAN_ELEMENT_THEORY = SGP/SGP4

EPOCH          = 2026-02-23T10:01:40.251072
MEAN_MOTION    = 14.85235946
ECCENTRICITY   = .008493
INCLINATION    = 98.2603
RA_OF_ASC_NODE = 222.3432
ARG_OF_PERICENTER = 38.0507
MEAN_ANOMALY   = 322.6664

EPHEMERIS_TYPE = 0
CLASSIFICATION_TYPE = U
NORAD_CAT_ID   = 28499
ELEMENT_SET_NO = 999
REV_AT_EPOCH   = 14367
BSTAR          = .97239E-4
MEAN_MOTION_DOT = .825E-5
MEAN_MOTION_DDOT = 0

CCSDS_OMM_VERS = 2.0
CREATION_DATE  = 
ORIGINATOR     = 

OBJECT_NAME    = CZ-2D R/B
OBJECT_ID      = 2005-024B
CENTER_NAME    = EARTH
REF_FRAME      = TEME
TIME_SYSTEM    = UTC
MEAN_ELEMENT_THEORY = SGP/SGP4

EPOCH          = 2026-02-23T11:08:06.259776
MEAN_MOTION    = 15.58780890
ECCENTRICITY   = .0007475
INCLINATION    = 97.3617
RA_OF_ASC_NODE = 69.1037
ARG_OF_PERICENTER = 80.8290
MEAN_ANOMALY   = 279.3811

EPHEMERIS_TYPE = 0
CLASSIFICATION_TYPE = U
NORAD_CAT_ID   = 28738
ELEMENT_SET_NO = 999
REV_AT_EPOCH   = 13756
BSTAR          = .60912E-3
MEAN_MOTION_DOT = .47129E-3
MEAN_MOTION_DDOT = 0

